[{"OBJECT_NAME":"AAC-AIS-SAT3","OBJECT_ID":"2023-174DJ","EPOCH":"2026-03-09T21:54:37.399104","MEAN_MOTION":14.84090722,"ECCENTRICITY":0.00050238,"INCLINATION":97.6364,"RA_OF_ASC_NODE":121.8384,"ARG_OF_PERICENTER":288.7792,"MEAN_ANOMALY":71.2877,"EPHEMERIS_TYPE":0,"CLASSIFICATION_TYPE":"U","NORAD_CAT_ID":58997,"ELEMENT_SET_NO":999,"REV_AT_EPOCH":12642,"BSTAR":0.00054806577,"MEAN_MOTION_DOT":4.524e-5,"MEAN_MOTION_DDOT":0},{"OBJECT_NAME":"COSMOS 2251 DEB","OBJECT_ID":"1993-036AJU","EPOCH":"2026-03-09T21:58:51.629376","MEAN_MOTION":14.83580265,"ECCENTRICITY":0.00043541,"INCLINATION":74.0026,"RA_OF_ASC_NODE":246.8491,"ARG_OF_PERICENTER":339.5051,"MEAN_ANOMALY":20.5952,"EPHEMERIS_TYPE":0,"CLASSIFICATION_TYPE":"U","NORAD_CAT_ID":35290,"ELEMENT_SET_NO":999,"REV_AT_EPOCH":89249,"BSTAR":0.0023892749,"MEAN_MOTION_DOT":0.00019721,"MEAN_MOTION_DDOT":0}]
